{
  "type": "FeatureCollection",
  "features": [
    {
      "type": "Feature",
      "properties": {
        "norad_id": 41890,
        "name": "CYGFM07",
        "group": "weather",
        "lat": 31.10450539698213,
        "lon": 48.301672881478936,
        "alt_km": 413.7363240066743,
        "timestamp": "2025-12-26T23:26:41.800119+00:00",
        "meta_object_name": "CYGFM07",
        "meta_object_id": "2016-078G",
        "meta_epoch": "2025-12-26T12:08:00.125664",
        "meta_mean_motion": 15.50595573,
        "meta_eccentricity": 0.0009083,
        "meta_inclination": 34.9475,
        "meta_ra_of_asc_node": 291.1596,
        "meta_arg_of_pericenter": 332.0459,
        "meta_mean_anomaly": 27.9775,
        "meta_ephemeris_type": 0,
        "meta_classification_type": "U",
        "meta_norad_cat_id": 41890,
        "meta_element_set_no": 999,
        "meta_rev_at_epoch": 50209,
        "meta_bstar": 0.00039275,
        "meta_mean_motion_dot": 0.00023249,
        "meta_mean_motion_ddot": 0,
        "tle_line1": "1 41890U 16078G   25360.50555701  .00023249  00000+0  39275-3 0  9996",
        "tle_line2": "2 41890  34.9475 291.1596 0009083 332.0459  27.9775 15.50595573502093"
      },
      "geometry": {
        "type": "Point",
        "coordinates": [
          48.301672881478936,
          31.10450539698213
        ]
      }
    },
    {
      "type": "Feature",
      "properties": {
        "norad_id": 41891,
        "name": "CYGFM03",
        "group": "weather",
        "lat": -28.05459464898192,
        "lon": -119.75762282026136,
        "alt_km": 411.1094630819698,
        "timestamp": "2025-12-26T23:26:41.800129+00:00",
        "meta_object_name": "CYGFM03",
        "meta_object_id": "2016-078H",
        "meta_epoch": "2025-12-26T05:08:17.981664",
        "meta_mean_motion": 15.50474136,
        "meta_eccentricity": 0.0009067,
        "meta_inclination": 34.943,
        "meta_ra_of_asc_node": 295.0003,
        "meta_arg_of_pericenter": 316.561,
        "meta_mean_anomaly": 43.4397,
        "meta_ephemeris_type": 0,
        "meta_classification_type": "U",
        "meta_norad_cat_id": 41891,
        "meta_element_set_no": 999,
        "meta_rev_at_epoch": 50202,
        "meta_bstar": 0.00038802,
        "meta_mean_motion_dot": 0.00022868,
        "meta_mean_motion_ddot": 0,
        "tle_line1": "1 41891U 16078H   25360.21409701  .00022868  00000+0  38802-3 0  9994",
        "tle_line2": "2 41891  34.9430 295.0003 0009067 316.5610  43.4397 15.50474136502026"
      },
      "geometry": {
        "type": "Point",
        "coordinates": [
          -119.75762282026136,
          -28.05459464898192
        ]
      }
    },
    {
      "type": "Feature",
      "properties": {
        "norad_id": 43010,
        "name": "FENGYUN 3D",
        "group": "weather",
        "lat": 10.805704985522597,
        "lon": -34.2304754091625,
        "alt_km": 828.5928393068061,
        "timestamp": "2025-12-26T23:26:41.800138+00:00",
        "meta_object_name": "FENGYUN 3D",
        "meta_object_id": "2017-072A",
        "meta_epoch": "2025-12-26T14:56:10.501728",
        "meta_mean_motion": 14.1968714,
        "meta_eccentricity": 0.00016151,
        "meta_inclination": 98.9916,
        "meta_ra_of_asc_node": 327.1414,
        "meta_arg_of_pericenter": 144.6156,
        "meta_mean_anomaly": 215.5127,
        "meta_ephemeris_type": 0,
        "meta_classification_type": "U",
        "meta_norad_cat_id": 43010,
        "meta_element_set_no": 999,
        "meta_rev_at_epoch": 42050,
        "meta_bstar": 2.6162642e-05,
        "meta_mean_motion_dot": 9e-08,
        "meta_mean_motion_ddot": 0,
        "tle_line1": "1 43010U 17072A   25360.62234377  .00000009  00000+0  26163-4 0  9995",
        "tle_line2": "2 43010  98.9916 327.1414 0001615 144.6156 215.5127 14.19687140420509"
      },
      "geometry": {
        "type": "Point",
        "coordinates": [
          -34.2304754091625,
          10.805704985522597
        ]
      }
    },
    {
      "type": "Feature",
      "properties": {
        "norad_id": 43013,
        "name": "NOAA 20 (JPSS-1)",
        "group": "weather",
        "lat": 24.550793157802776,
        "lon": 121.15865472109013,
        "alt_km": 826.1854733342143,
        "timestamp": "2025-12-26T23:26:41.800147+00:00",
        "meta_object_name": "NOAA 20 (JPSS-1)",
        "meta_object_id": "2017-073A",
        "meta_epoch": "2025-12-26T14:15:32.122656",
        "meta_mean_motion": 14.1952945,
        "meta_eccentricity": 0.00020546,
        "meta_inclination": 98.7616,
        "meta_ra_of_asc_node": 296.7404,
        "meta_arg_of_pericenter": 67.5119,
        "meta_mean_anomaly": 292.6275,
        "meta_ephemeris_type": 0,
        "meta_classification_type": "U",
        "meta_norad_cat_id": 43013,
        "meta_element_set_no": 999,
        "meta_rev_at_epoch": 41998,
        "meta_bstar": 7.2866784e-05,
        "meta_mean_motion_dot": 1.1e-06,
        "meta_mean_motion_ddot": 0,
        "tle_line1": "1 43013U 17073A   25360.59412179  .00000110  00000+0  72867-4 0  9998",
        "tle_line2": "2 43013  98.7616 296.7404 0002054  67.5119 292.6275 14.19529450419986"
      },
      "geometry": {
        "type": "Point",
        "coordinates": [
          121.15865472109013,
          24.550793157802776
        ]
      }
    },
    {
      "type": "Feature",
      "properties": {
        "norad_id": 43226,
        "name": "GOES 17",
        "group": "weather",
        "lat": -0.4957929267738293,
        "lon": -2.0811331517227414,
        "alt_km": 35783.36318592256,
        "timestamp": "2025-12-26T23:26:41.800159+00:00",
        "meta_object_name": "GOES 17",
        "meta_object_id": "2018-022A",
        "meta_epoch": "2025-12-26T13:28:40.537056",
        "meta_mean_motion": 1.0027151,
        "meta_eccentricity": 0.0003196,
        "meta_inclination": 0.4913,
        "meta_ra_of_asc_node": 89.0151,
        "meta_arg_of_pericenter": 191.2344,
        "meta_mean_anomaly": 287.726,
        "meta_ephemeris_type": 0,
        "meta_classification_type": "U",
        "meta_norad_cat_id": 43226,
        "meta_element_set_no": 999,
        "meta_rev_at_epoch": 2869,
        "meta_bstar": 0,
        "meta_mean_motion_dot": -1.61e-06,
        "meta_mean_motion_ddot": 0,
        "tle_line1": "1 43226U 18022A   25360.56158029 -.00000161  00000+0  00000+0 0  9999",
        "tle_line2": "2 43226   0.4913  89.0151 0003196 191.2344 287.7260  1.00271510 28697"
      },
      "geometry": {
        "type": "Point",
        "coordinates": [
          -2.0811331517227414,
          -0.4957929267738293
        ]
      }
    },
    {
      "type": "Feature",
      "properties": {
        "norad_id": 43491,
        "name": "FENGYUN 2H",
        "group": "weather",
        "lat": 2.5860707674697,
        "lon": 166.67708071464045,
        "alt_km": 35784.68584697694,
        "timestamp": "2025-12-26T23:26:41.800170+00:00",
        "meta_object_name": "FENGYUN 2H",
        "meta_object_id": "2018-050A",
        "meta_epoch": "2025-12-26T19:17:01.821984",
        "meta_mean_motion": 1.00270105,
        "meta_eccentricity": 0.0002484,
        "meta_inclination": 2.5849,
        "meta_ra_of_asc_node": 81.1809,
        "meta_arg_of_pericenter": 166.8993,
        "meta_mean_anomaly": 216.048,
        "meta_ephemeris_type": 0,
        "meta_classification_type": "U",
        "meta_norad_cat_id": 43491,
        "meta_element_set_no": 999,
        "meta_rev_at_epoch": 2771,
        "meta_bstar": 0,
        "meta_mean_motion_dot": -1.08e-06,
        "meta_mean_motion_ddot": 0,
        "tle_line1": "1 43491U 18050A   25360.80349331 -.00000108  00000+0  00000+0 0  9990",
        "tle_line2": "2 43491   2.5849  81.1809 0002484 166.8993 216.0480  1.00270105 27712"
      },
      "geometry": {
        "type": "Point",
        "coordinates": [
          166.67708071464045,
          2.5860707674697
        ]
      }
    },
    {
      "type": "Feature",
      "properties": {
        "norad_id": 43689,
        "name": "METOP-C",
        "group": "weather",
        "lat": 35.673360289800485,
        "lon": 52.2229020930173,
        "alt_km": 817.479618279418,
        "timestamp": "2025-12-26T23:26:41.800180+00:00",
        "meta_object_name": "METOP-C",
        "meta_object_id": "2018-087A",
        "meta_epoch": "2025-12-26T18:12:26.908992",
        "meta_mean_motion": 14.21489651,
        "meta_eccentricity": 5.44e-05,
        "meta_inclination": 98.691,
        "meta_ra_of_asc_node": 58.3121,
        "meta_arg_of_pericenter": 12.0062,
        "meta_mean_anomaly": 348.1128,
        "meta_ephemeris_type": 0,
        "meta_classification_type": "U",
        "meta_norad_cat_id": 43689,
        "meta_element_set_no": 999,
        "meta_rev_at_epoch": 37033,
        "meta_bstar": 8.2625e-05,
        "meta_mean_motion_dot": 1.37e-06,
        "meta_mean_motion_ddot": 0,
        "tle_line1": "1 43689U 18087A   25360.75864478  .00000137  00000+0  82625-4 0  9996",
        "tle_line2": "2 43689  98.6910  58.3121 0000544  12.0062 348.1128 14.21489651370333"
      },
      "geometry": {
        "type": "Point",
        "coordinates": [
          52.2229020930173,
          35.673360289800485
        ]
      }
    }
  ]
}